[
    {
        "Altitude(m)": 610399.5760155445,
        "Argument of Periapsis(deg)": 0.0,
        "Eccentricity": 0.0,
        "Inclination(deg)": 60.0,
        "Latitude(deg)": 52.111465096031196,
        "Longitude(deg)": 82.58425940636657,
        "Mean Anomaly(deg)": 65.45449999999998,
        "RAAN(deg)": 135.0,
        "Satellite Name": "Test1 598",
        "Satellite Number": 598,
        "Semi-Major Axis(m)": 6980739.136638005,
        "Time(s)": 0
    },
    {
        "Altitude(m)": 610481.7271233491,
        "Argument of Periapsis(deg)": 0.00010418945913296404,
        "Eccentricity": 0.0,
        "Inclination(deg)": 60.0,
        "Latitude(deg)": 52.47106782323932,
        "Longitude(deg)": 83.36639732693712,
        "Mean Anomaly(deg)": 66.07460614546183,
        "RAAN(deg)": 134.99957995086024,
        "Satellite Name": "Test1 598",
        "Satellite Number": 598,
        "Semi-Major Axis(m)": 6980739.136638005,
        "Time(s)": 10
    }
]